[{"OBJECT_NAME":"CARTOSAT-2C","OBJECT_ID":"2016-040A","EPOCH":"2026-03-09T22:26:22.952832","MEAN_MOTION":15.19225576,"ECCENTRICITY":0.00104304,"INCLINATION":97.4605,"RA_OF_ASC_NODE":130.2157,"ARG_OF_PERICENTER":119.7256,"MEAN_ANOMALY":240.5018,"EPHEMERIS_TYPE":0,"CLASSIFICATION_TYPE":"U","NORAD_CAT_ID":41599,"ELEMENT_SET_NO":999,"REV_AT_EPOCH":53864,"BSTAR":0.0002054492,"MEAN_MOTION_DOT":4.264e-5,"MEAN_MOTION_DDOT":0},{"OBJECT_NAME":"OBJECT C","OBJECT_ID":"2025-180C","EPOCH":"2026-03-09T23:47:54.737664","MEAN_MOTION":15.14468548,"ECCENTRICITY":0.00128699,"INCLINATION":97.5082,"RA_OF_ASC_NODE":197.2463,"ARG_OF_PERICENTER":306.8815,"MEAN_ANOMALY":53.1236,"EPHEMERIS_TYPE":0,"CLASSIFICATION_TYPE":"U","NORAD_CAT_ID":65261,"ELEMENT_SET_NO":999,"REV_AT_EPOCH":3064,"BSTAR":0.00036364309,"MEAN_MOTION_DOT":6.637e-5,"MEAN_MOTION_DDOT":0}]
